[{"OBJECT_NAME":"NETSAT-1","OBJECT_ID":"2020-068W","EPOCH":"2026-03-09T22:42:38.711232","MEAN_MOTION":15.32042482,"ECCENTRICITY":0.00057337,"INCLINATION":97.8751,"RA_OF_ASC_NODE":63.2583,"ARG_OF_PERICENTER":18.5877,"MEAN_ANOMALY":341.5572,"EPHEMERIS_TYPE":0,"CLASSIFICATION_TYPE":"U","NORAD_CAT_ID":46506,"ELEMENT_SET_NO":999,"REV_AT_EPOCH":30009,"BSTAR":0.00059222329,"MEAN_MOTION_DOT":0.00018269,"MEAN_MOTION_DDOT":0},{"OBJECT_NAME":"STARLINK-32220","OBJECT_ID":"2024-138R","EPOCH":"2026-03-09T22:29:57.301728","MEAN_MOTION":15.30176624,"ECCENTRICITY":0.00012946,"INCLINATION":53.1608,"RA_OF_ASC_NODE":308.5865,"ARG_OF_PERICENTER":78.0199,"MEAN_ANOMALY":282.0947,"EPHEMERIS_TYPE":0,"CLASSIFICATION_TYPE":"U","NORAD_CAT_ID":60370,"ELEMENT_SET_NO":999,"REV_AT_EPOCH":9066,"BSTAR":0.00014921517,"MEAN_MOTION_DOT":4.059e-5,"MEAN_MOTION_DDOT":0}]
